NORAD_CAT_ID,OBJECT_NAME,OBJECT_TYPE,EPOCH,MEAN_MOTION,ECCENTRICITY,INCLINATION,RA_OF_ASC_NODE,ARG_OF_PERICENTER,MEAN_ANOMALY,BSTAR,MEAN_MOTION_DOT,MEAN_MOTION_DDOT,TLE_LINE0,TLE_LINE1,TLE_LINE2,SEMIMAJOR_AXIS,PERIOD,APOGEE,PERIGEE,DECAYED
54773.0,STARLINK-5453,PAYLOAD,2023-04-29 05:47:57,15.08855871,0.0001063,53.2184,57.1921,94.1726,265.9388,0.00029849,4.468e-05,0.0,0 STARLINK-5453,1 54773U 22175R   23119.24163832  .00004468  00000-0  29849-3 0  9995,2 54773  53.2184  57.1921 0001063  94.1726 265.9388 15.08855871 19936,6917.832,95.437,540.432,538.962,0.0
54773.0,STARLINK-5453,PAYLOAD,2023-04-29 20:06:26,15.08837718,0.0001132,53.2178,54.5157,91.7823,268.3299,0.00064975,0.00010067,0.0,0 STARLINK-5453,1 54773U 22175R   23119.83780256  .00010067  00000-0  64975-3 0  9996,2 54773  53.2178  54.5157 0001132  91.7823 268.3299 15.08837718 20029,6917.887,95.438,540.535,538.969,0.0
54773.0,STARLINK-5453,PAYLOAD,2023-04-30 04:03:21,15.08847726,0.0001068,53.2183,53.0291,90.8505,269.261,9.5753e-05,1.237e-05,0.0,0 STARLINK-5453,1 54773U 22175R   23120.16899815  .00001237  00000-0  95753-4 0  9994,2 54773  53.2183  53.0291 0001068  90.8505 269.2610 15.08847726 22235,6917.857,95.437,540.461,538.983,0.0
54773.0,STARLINK-5453,PAYLOAD,2023-04-30 19:57:13,15.08837474,9.18e-05,53.2179,50.0559,79.8535,280.256,7.3108e-05,8.76e-06,0.0,0 STARLINK-5453,1 54773U 22175R   23120.83140541  .00000876  00000-0  73108-4 0  9991,2 54773  53.2179  50.0559 0000918  79.8535 280.2560 15.08837474 20174,6917.888,95.438,540.388,539.118,0.0
54773.0,STARLINK-5453,PAYLOAD,2023-05-01 05:29:32,15.0884289,9.44e-05,53.2184,48.2718,93.7542,266.3558,0.00016081,2.273e-05,0.0,0 STARLINK-5453,1 54773U 22175R   23121.22884402  .00002273  00000-0  16081-3 0  9995,2 54773  53.2184  48.2718 0000944  93.7542 266.3558 15.08842890 22394,6917.872,95.437,540.39,539.084,0.0
54773.0,STARLINK-5453,PAYLOAD,2023-05-01 22:58:46,15.08839506,0.0001037,53.219,45.0002,85.9271,274.1839,0.00010643,1.406e-05,0.0,0 STARLINK-5453,1 54773U 22175R   23121.95748744  .00001406  00000-0  10643-3 0  9998,2 54773  53.2190  45.0002 0001037  85.9271 274.1839 15.08839506 20340,6917.882,95.438,540.464,539.03,0.0
54773.0,STARLINK-5453,PAYLOAD,2023-05-02 03:44:56,15.08847918,0.0001097,53.22,44.108,91.7613,268.3505,0.00020262,2.939e-05,0.0,0 STARLINK-5453,1 54773U 22175R   23122.15620403  .00002939  00000-0  20262-3 0  9992,2 54773  53.2200  44.1080 0001097  91.7613 268.3505 15.08847918 20373,6917.856,95.437,540.48,538.962,0.0
54773.0,STARLINK-5453,PAYLOAD,2023-05-02 19:38:47,15.08854005,0.0001315,53.2192,41.1358,106.8194,253.2943,-0.00020486,-3.548e-05,0.0,0 STARLINK-5453,1 54773U 22175R   23122.81859954 -.00003548  00000-0 -20486-3 0  9997,2 54773  53.2192  41.1358 0001315 106.8194 253.2943 15.08854005 22638,6917.838,95.437,540.612,538.793,0.0
54773.0,STARLINK-5453,PAYLOAD,2023-05-03 03:35:43,15.08847175,0.0001118,53.2187,39.6485,88.1131,271.9989,0.00017048,2.427e-05,0.0,0 STARLINK-5453,1 54773U 22175R   23123.14980381  .00002427  00000-0  17048-3 0  9996,2 54773  53.2187  39.6485 0001118  88.1131 271.9989 15.08847175 20522,6917.858,95.437,540.497,538.95,0.0
54773.0,STARLINK-5453,PAYLOAD,2023-05-03 11:32:39,15.08838932,0.0001145,53.2192,38.1621,76.6948,283.4172,2.6478e-05,1.34e-06,0.0,0 STARLINK-5453,1 54773U 22175R   23123.48100824  .00000134  00000-0  26478-4 0  9990,2 54773  53.2192  38.1621 0001145  76.6948 283.4172 15.08838932 20570,6917.884,95.438,540.541,538.957,0.0
54773.0,STARLINK-5453,PAYLOAD,2023-05-03 17:54:11,15.08834235,0.0001216,53.2189,36.9732,82.4066,277.7064,-7.7504e-06,-4.11e-06,0.0,0 STARLINK-5453,1 54773U 22175R   23123.74597158 -.00000411  00000-0 -77504-5 0  9996,2 54773  53.2189  36.9732 0001216  82.4066 277.7064 15.08834235 22772,6917.898,95.438,540.604,538.922,0.0
54773.0,STARLINK-5453,PAYLOAD,2023-05-04 11:23:26,15.08846702,0.0001168,53.2192,33.7035,79.1131,280.9992,2.0485e-05,3.8e-07,0.0,0 STARLINK-5453,1 54773U 22175R   23124.47460717  .00000038  00000-0  20485-4 0  9995,2 54773  53.2192  33.7035 0001168  79.1131 280.9992 15.08846702 22889,6917.86,95.437,540.533,538.917,0.0
54773.0,STARLINK-5453,PAYLOAD,2023-05-04 17:44:58,15.08843164,0.0001057,53.2189,32.5137,68.3236,291.7869,7.1541e-05,8.51e-06,0.0,0 STARLINK-5453,1 54773U 22175R   23124.73956906  .00000851  00000-0  71541-4 0  9996,2 54773  53.2189  32.5137 0001057  68.3236 291.7869 15.08843164 22925,6917.871,95.437,540.467,539.004,0.0
54773.0,STARLINK-5453,PAYLOAD,2023-05-05 00:06:30,15.08847981,9.8e-05,53.2184,31.3228,86.1792,273.9312,8.8235e-05,1.117e-05,0.0,0 STARLINK-5453,1 54773U 22175R   23125.00452418  .00001117  00000-0  88235-4 0  9990,2 54773  53.2184  31.3228 0000980  86.1792 273.9312 15.08847981 20808,6917.856,95.437,540.399,539.043,0.0
54773.0,STARLINK-5453,PAYLOAD,2023-05-05 20:46:31,15.08869305,0.0001246,53.2182,27.458,67.7818,292.3307,-0.00034768,-5.821e-05,0.0,0 STARLINK-5453,1 54773U 22175R   23125.86563722 -.00005821  00000-0 -34768-3 0  9994,2 54773  53.2182  27.4580 0001246  67.7818 292.3307 15.08869305 23090,6917.791,95.436,540.518,538.794,0.0
54773.0,STARLINK-5453,PAYLOAD,2023-05-05 23:57:18,15.0884585,0.0001115,53.2191,26.8636,85.8974,274.2146,0.00012707,1.735e-05,0.0,0 STARLINK-5453,1 54773U 22175R   23125.99812558  .00001735  00000-0  12707-3 0  9999,2 54773  53.2191  26.8636 0001115  85.8974 274.2146 15.08845850 20955,6917.863,95.437,540.499,538.956,0.0
54773.0,STARLINK-5453,PAYLOAD,2023-05-06 01:32:41,15.0884838,9.84e-05,53.2184,26.5657,88.704,271.4065,0.00015711,2.214e-05,0.0,0 STARLINK-5453,1 54773U 22175R   23126.06436437  .00002214  00000-0  15711-3 0  9997,2 54773  53.2184  26.5657 0000984  88.7040 271.4065 15.08848380 23128,6917.855,95.437,540.4,539.039,0.0
54773.0,STARLINK-5453,PAYLOAD,2023-05-06 22:12:42,15.08845179,0.0001109,53.2178,22.7009,86.7257,273.3862,9.1528e-05,1.169e-05,0.0,0 STARLINK-5453,1 54773U 22175R   23126.92548667  .00001169  00000-0  91528-4 0  9990,2 54773  53.2178  22.7009 0001109  86.7257 273.3862 15.08845179 21091,6917.865,95.437,540.497,538.962,0.0
54773.0,STARLINK-5453,PAYLOAD,2023-05-07 20:28:06,15.08833193,0.0001061,53.2171,18.5392,91.87,268.2414,-2.134e-05,-6.27e-06,0.0,0 STARLINK-5453,1 54773U 22175R   23127.85285583 -.00000627  00000-0 -21340-4 0  9993,2 54773  53.2171  18.5392 0001061  91.8700 268.2414 15.08833193 21234,6917.901,95.438,540.5,539.032,0.0
54773.0,STARLINK-5453,PAYLOAD,2023-05-07 22:03:29,15.08832336,0.0001049,53.2172,18.2418,85.4655,274.6457,-3.0943e-05,-7.8e-06,0.0,0 STARLINK-5453,1 54773U 22175R   23127.91909679 -.00000780  00000-0 -30943-4 0  9998,2 54773  53.2172  18.2418 0001049  85.4655 274.6457 15.08832336 23402,6917.904,95.438,540.495,539.043,0.0
54773.0,STARLINK-5453,PAYLOAD,2023-05-08 20:18:53,15.08846711,9.29e-05,53.2183,14.0761,90.6766,269.4333,0.00013671,1.889e-05,0.0,0 STARLINK-5453,1 54773U 22175R   23128.84645080  .00001889  00000-0  13671-3 0  9991,2 54773  53.2183  14.0761 0000929  90.6766 269.4333 15.08846711 21388,6917.86,95.437,540.368,539.082,0.0
54773.0,STARLINK-5453,PAYLOAD,2023-05-08 21:54:16,15.08848548,9.27e-05,53.2184,13.7785,91.062,269.0479,0.00017194,2.45e-05,0.0,0 STARLINK-5453,1 54773U 22175R   23128.91268988  .00002450  00000-0  17194-3 0  9996,2 54773  53.2184  13.7785 0000927  91.0620 269.0479 15.08848548 23551,6917.854,95.437,540.361,539.078,0.0
54773.0,STARLINK-5453,PAYLOAD,2023-05-09 02:40:25,15.08859388,9.99e-05,53.2178,12.8873,93.7429,266.3677,0.0003542,5.357e-05,0.0,0 STARLINK-5453,1 54773U 22175R   23129.11140411  .00005357  00000-0  35420-3 0  9990,2 54773  53.2178  12.8873 0000999  93.7429 266.3677 15.08859388 23584,6917.821,95.436,540.377,538.995,0.0
54773.0,STARLINK-5453,PAYLOAD,2023-05-10 00:55:49,15.08848999,9.62e-05,53.2179,8.7241,108.2906,251.8191,0.00021106,3.074e-05,0.0,0 STARLINK-5453,1 54773U 22175R   23130.03876979  .00003074  00000-0  21106-3 0  9998,2 54773  53.2179   8.7241 0000962 108.2906 251.8191 15.08848999 23722,6917.853,95.437,540.383,539.052,0.0
54773.0,STARLINK-5453,PAYLOAD,2023-05-10 18:25:04,15.08838431,0.0001145,53.2175,5.4573,81.4077,278.7045,0.00013418,1.848e-05,0.0,0 STARLINK-5453,1 54773U 22175R   23130.76741535  .00001848  00000-0  13418-3 0  9991,2 54773  53.2175   5.4573 0001145  81.4077 278.7045 15.08838431 21673,6917.885,95.438,540.542,538.958,0.0
54773.0,STARLINK-5453,PAYLOAD,2023-05-10 23:11:13,15.08848842,0.0001043,53.2175,4.5641,95.3774,264.7337,0.00017356,2.476e-05,0.0,0 STARLINK-5453,1 54773U 22175R   23130.96612969  .00002476  00000-0  17356-3 0  9994,2 54773  53.2175   4.5641 0001043  95.3774 264.7337 15.08848842 21704,6917.853,95.437,540.44,538.997,0.0
54773.0,STARLINK-5453,PAYLOAD,2023-05-11 21:26:38,15.08835675,9.85e-05,53.2178,0.3952,101.1576,258.9527,0.00011358,1.52e-05,0.0,0 STARLINK-5453,1 54773U 22175R   23131.89349971  .00001520  00000-0  11358-3 0  9992,2 54773  53.2178   0.3952 0000985 101.1576 258.9527 15.08835675 21847,6917.894,95.438,540.44,539.077,0.0
54773.0,STARLINK-5453,PAYLOAD,2023-05-11 23:02:01,15.08839104,0.000109,53.2164,0.1024,70.8765,289.2345,0.00016381,2.32e-05,0.0,0 STARLINK-5453,1 54773U 22175R   23131.95974008  .00002320  00000-0  16381-3 0  9994,2 54773  53.2164   0.1024 0001090  70.8765 289.2345 15.08839104 24018,6917.883,95.438,540.502,538.994,0.0
54773.0,STARLINK-5453,PAYLOAD,2023-05-12 21:17:25,15.08851334,0.0001061,53.2162,355.9398,62.7892,297.3208,0.00033513,5.051e-05,0.0,0 STARLINK-5453,1 54773U 22175R   23132.88709756  .00005051  00000-0  33513-3 0  9993,2 54773  53.2162 355.9398 0001061  62.7892 297.3208 15.08851334 24152,6917.846,95.437,540.445,538.977,0.0
54773.0,STARLINK-5453,PAYLOAD,2023-05-13 00:28:11,15.08858955,0.0001041,53.2165,355.3443,71.606,288.5045,0.00049736,7.641e-05,0.0,0 STARLINK-5453,1 54773U 22175R   23133.01957432  .00007641  00000-0  49736-3 0  9996,2 54773  53.2165 355.3443 0001041  71.6060 288.5045 15.08858955 22014,6917.822,95.436,540.408,538.967,0.0
